{"type":"FeatureCollection","features":[{"type":"Feature","properties":{"name":"hybrid_body_projection"},"geometry":{"type":"Polygon","coordinates":[[[12.009864669942262,44.612335347508335],[12.039302981028136,44.45807887050958],[12.087850294501592,44.30873084337107],[12.154740365204232,44.1666484964836],[12.238917435584218,44.03407438257784],[12.339052899215947,43.913100981456296],[12.453566270822227,43.805637673397136],[55.240279941254,8.435287705840205],[55.37483219901938,8.338332221577401],[55.5210355514539,8.260042658190562],[55.67631638202087,8.201797146287692],[55.83794128340284,8.16462098118607],[56.00306517365051,8.149168574646328],[56.168781378139336,8.155711935267036],[56.33217279574154,8.184135880319356],[56.4903632485358,8.233940063307761],[56.640568111146024,8.304247781565717],[56.78014332848134,8.393821408846263],[56.90663195901841,8.501084181247736],[57.01780742432499,8.624147952977117],[57.11171270350364,8.760846433366527],[57.18669478261623,8.908773320071917],[57.24143375267607,9.065324657195502],[57.46884064430266,9.88424533774506],[57.85109105169555,11.033300697711606],[67.15075706483886,2.410960440396009],[67.28178018134172,2.304931132273153],[67.42587667493443,2.217492743830692],[67.58042659273953,2.1502350740407685],[67.74261991841465,2.104380997389125],[67.90950766368314,2.080764229652413],[68.07805548664305,2.0798141693333028],[68.24519886197005,2.101548090365427],[68.40789879991343,2.1455708280398618],[68.56319710100591,2.2110819638636277],[68.70827014184992,2.2968903787155712],[68.8404802140507,2.4014359096951305],[68.95742348285515,2.5228177169005854],[69.05697369351572,2.6588288443739225],[69.13732083071301,2.8069963468275065],[69.19700402813409,2.964626252571079],[69.23493812984685,3.1288525451261333],[69.31057342580893,3.5977400832487256],[69.40509765582823,4.10440045676428],[69.51202748492695,4.608588492919359],[69.62757146717857,5.095121328343527],[69.68258155224257,5.29380484341043],[70.86190858967228,5.071004873422641],[70.79338118674804,4.811007562084623],[70.86190858967228,5.07100487342264],[72.7177,4.71601],[72.8131,4.67744],[72.908,4.60825],[73.1525,4.29534],[73.3443,4.10675],[73.5534,3.94961],[73.7747,3.82431],[74.024,3.72345],[74.1496,3.68673],[74.3346,3.64839],[74.6024,3.62424],[74.7913,3.6289],[74.9287,3.64359],[75.1215,3.68068],[75.3642,3.75651],[75.5437,3.83573],[75.7147,3.93217],[75.8753,4.04491],[76.0242,4.17285],[76.1597,4.31476],[76.2807,4.46927],[76.3897,4.64131],[76.4746,4.81006],[76.7453,5.49878],[77.0244,6.12838],[77.2462,6.57749],[77.4835,7.01858],[77.7692,7.5054],[78.1058,8.02814],[78.4667,8.53852],[78.837,9.01526],[78.9406,9.10884],[79.0545,9.17605],[79.1937,9.22306],[79.3324,9.23881],[79.4786,9.22418],[79.6115,9.18128],[79.7386,9.10763],[79.8419,9.01373],[79.9044,8.93196],[79.9476,8.85498],[79.9826,8.76602],[80.0058,8.66572],[80.0134,8.57778],[80.0085,8.48231],[79.9883,8.38137],[79.9589,8.29815],[79.8909,8.17624],[79.4552,7.60312],[79.067,7.0335],[78.7182,6.45924],[78.4213,5.91053],[78.1243,5.28848],[77.8669,4.66785],[77.6367,4.01863],[77.5356,3.69315],[77.431,3.31969],[77.2963,2.75975],[77.1785,2.14708],[77.0913,1.53812],[77.0358,0.964392],[77.0047,0.350501],[77.0018,-0.217169],[77.0277,-0.848764],[77.0824,-1.4615],[77.1688,-2.08819],[77.2939,-2.74881],[77.4403,-3.35479],[77.6331,-4.00752],[77.8427,-4.60439],[78.097,-5.22681],[78.3615,-5.79187],[78.6568,-6.35078],[79.0001,-6.92835],[79.3502,-7.45528],[79.7204,-7.95804],[80.1453,-8.47851],[80.6022,-8.98229],[81.0503,-9.42884],[81.5494,-9.87864],[82.0404,-10.2784],[82.3969,-10.5448],[82.7695,-10.8037],[83.1584,-11.0541],[83.5483,-11.2861],[83.9461,-11.5044],[84.402,-11.733],[84.8149,-11.9212],[85.2264,-12.0919],[85.6514,-12.2511],[86.0894,-12.3979],[86.5161,-12.5245],[86.9638,-12.6405],[87.3982,-12.737],[87.8529,-12.8215],[88.3017,-12.8886],[88.7439,-12.9392],[89.2049,-12.9757],[89.6495,-12.9953],[90.1037,-12.9996],[90.5569,-12.9881],[91.0103,-12.9607],[91.4615,-12.9176],[91.9114,-12.8587],[92.359,-12.7842],[92.8123,-12.6922],[93.254,-12.5862],[93.6908,-12.4651],[94.1236,-12.3287],[94.5518,-12.1771],[94.974,-12.0108],[95.3897,-11.8301],[95.7997,-11.6346],[96.1941,-11.4295],[96.5482,-11.2304],[96.9361,-10.995],[97.3152,-10.7465],[97.6862,-10.4844],[98.0471,-10.21],[98.3922,-9.92829],[98.698,-9.66153],[99.0236,-9.35816],[99.3447,-9.03754],[99.6222,-8.7415],[99.9211,-8.40073],[100.209,-8.04899],[100.45,-7.73349],[100.681,-7.41117],[100.964,-6.98572],[101.172,-6.64807],[101.37,-6.30338],[101.553,-5.96143],[101.705,-5.65697],[101.849,-5.34865],[102.007,-4.98431],[102.133,-4.66831],[102.289,-4.24157],[102.446,-3.75585],[102.586,-3.25637],[102.716,-2.7043],[102.811,-2.21112],[102.888,-1.70647],[102.945,-1.19968],[102.985,-0.633907],[103.0,-0.147082],[103.02,-0.016379],[103.045,0.0606245],[103.097,0.166026],[103.148,0.238248],[103.208,0.30323],[103.276,0.35986],[103.363,0.414091],[103.444,0.449514],[103.536,0.475625],[103.623,0.487966],[103.712,0.488795],[103.814,0.475202],[103.899,0.4513],[103.98,0.416513],[104.062,0.367241],[104.141,0.30181],[104.201,0.236647],[104.255,0.157956],[104.295,0.0791679],[104.322,0.00293671],[104.341,-0.0832608],[104.348,-0.149132],[104.345,-0.478351],[104.352,-0.601666],[104.38,-0.803331],[104.407,-0.923857],[104.489,-1.17245],[104.602,-1.40827],[104.674,-1.52629],[104.785,-1.67899],[104.875,-1.7837],[105.01,-1.91625],[105.168,-2.04421],[105.326,-2.14795],[105.441,-2.21085],[105.62,-2.2908],[105.877,-2.37109],[106.135,-2.41546],[106.396,-2.4258],[106.657,-2.40194],[106.842,-2.36365],[107.036,-2.30305],[107.269,-2.20012],[107.566,-2.02112],[107.664,-1.9889],[107.752,-1.97957],[107.84,-1.98754],[109.143,-2.23604],[109.519,-2.29137],[109.93927706644888,-2.3237158358299483],[110.27256965982056,-2.330210475040044],[110.53227928140565,-2.3220276603293692],[110.87021711325784,-2.2957304885041654],[110.84103799251203,-2.5782244025933254],[110.77373894332129,-3.0737397401527473],[110.69204893215839,-3.582627061894853],[110.59789480444454,-4.089356343056319],[110.4913332751052,-4.593622348868518],[110.3724285328215,-5.095121328343262],[110.24125220136384,-5.5935511972486065],[110.09788329644883,-6.088611720070637],[109.94240817814433,-6.580004690860077],[109.77492049884837,-7.067434112864763],[109.59552114687587,-7.550606376828189],[109.40431818568774,-8.02923043784686],[109.2014267887993,-8.50301799068066],[108.98696917040019,-8.971683643426763],[108.7541779931022,-9.448646118809782],[108.52387888331936,-9.892523277282365],[108.21237046620855,-10.452877437550905],[108.13955661579108,-10.598980176858168],[108.08640300619719,-10.753325766470715],[108.05381615283942,-10.91328189868809],[108.0423518126088,-11.076120580053363],[108.0522055056439,-11.239064656285898],[108.08320918080625,-11.399335175634066],[108.13483408173113,-11.554198782883157],[108.20619976457444,-11.701014335730981],[108.29608911366108,-11.837277948505932],[108.40296909894869,-11.960665695023271],[108.52501692129535,-12.06907324229808],[108.66015109963388,-12.160651739176298],[108.80606696987165,-12.233839347816414],[108.96027599009561,-12.287387880263816],[109.12014818174639,-12.320384085840837],[109.28295698294278,-12.332265226303745],[109.44592574899951,-12.322828673138119],[143.9514691870454,-8.05071377128482],[144.10212548625032,-8.022594138106507],[144.24820826289158,-7.976249163956319],[144.38752155072115,-7.912375522332252],[144.60530029765832,-7.795869835636708],[144.71820534849604,-7.7490555462649695],[145.2571938469077,-7.585343884250877],[145.37706247364105,-7.5614558010477095],[145.99874425993244,-7.501507720954082],[146.65104484614668,-7.564009880682687],[146.9390383619964,-7.632385371599101],[147.11215860383416,-7.647221818821647],[147.28566366106526,-7.637908741168074],[163.55045389409676,-5.62417280755465],[163.7149815313812,-5.592487663775518],[163.87379359289363,-5.53908334854833],[164.0240367171371,-5.46491937222379],[164.16301149991142,-5.371328232047297],[164.28822099425656,-5.259991471305221],[164.39741557286587,-5.132909467193514],[164.4886333469299,-4.992365490227199],[164.56023541520992,-4.840884680931991],[164.6109353100234,-4.681188680879987],[164.63982211108893,-4.516146733209386],[164.6463768119461,-4.348724131200636],[164.6304816448959,-4.18192894112864],[164.59242219692223,-4.018757956616549],[164.532882278577,-3.862142855524247],[164.45293163801992,-3.7148975267656805],[164.26058035684025,-3.4097346884645736],[163.59728549370797,-2.2337488578059683],[171.08278661234945,-0.44357866608665786],[171.2416217332079,-0.3942729277618189],[171.3925054172575,-0.3243174752402862],[171.53276669482767,-0.2349506723196666],[171.65992263596672,-0.12775450595674354],[171.77172230370724,-0.004626581654467832],[171.86618660055032,0.13225346828639428],[171.9416433027999,0.2804625690038876],[171.99675666256238,0.4373770967747836],[172.03055105339212,0.6002193228659211],[172.0424282410035,0.7661065853796988],[172.03217797332005,0.9321023186450097],[171.9999817023938,1.0952680368223124],[171.94640937230915,1.2527153514998612],[171.87240932993166,1.4016571024564095],[171.47612111668096,2.1074767227170246],[171.23892548825845,2.5650549105816336],[171.01303082960024,3.0283163565723332],[170.80478914503342,3.4829590872866967],[170.60155173628837,3.9565983169083916],[170.40447885312403,4.449393623172085],[170.26578727458042,4.829429257867319],[173.49546880270492,5.217616022977155],[173.5748802710817,5.214554043148907],[173.67259491512198,5.193556493212582],[173.85382497355207,5.136530607836665],[174.105602637994,5.080406725227597],[174.30638747742682,5.058234260807678],[174.641,5.06546],[174.891,5.10999],[175.141,5.18857],[175.378,5.29904],[175.551,5.40588],[175.751,5.56315],[175.939,5.75567],[176.095,5.96546],[176.223,6.19386],[176.296,6.3681],[176.369,6.61923],[176.409,6.87777],[176.415,7.13931],[176.395,7.34203],[176.358,7.53461],[176.202,8.05675],[176.096,8.45335],[176.083,8.58498],[176.092,8.6949],[176.119,8.80189],[176.163,8.90309],[176.227,9.00161],[176.302,9.08254],[176.389,9.15018],[176.479,9.19974],[176.59,9.2388],[176.699,9.2574],[176.802,9.25856],[176.89,9.24708],[176.982,9.22187],[177.063,9.18724],[177.151,9.13386],[177.225,9.07284],[177.28,9.0135],[177.335,8.93552],[177.373,8.86396],[177.404,8.78137],[177.6,8.09504],[177.725,7.71819],[177.838,7.40698],[178.076,6.82032],[178.338,6.25465],[178.655,5.65178],[178.968,5.1222],[179.343,4.55428],[179.747,4.00715],[180.069,3.61044],[180.483,3.14364],[180.878,2.73731],[181.333,2.31035],[181.771,1.9357],[182.263,1.55279],[182.726,1.22527],[183.244,0.893233],[183.785,0.581663],[184.34,0.296648],[184.916,0.0351722],[185.541,-0.211494],[186.132,-0.411346],[186.732,-0.582612],[187.348,-0.726682],[187.953,-0.837876],[188.58,-0.922241],[189.201,-0.975443],[189.825,-0.998818],[190.449,-0.992242],[191.072,-0.955748],[191.74,-0.883079],[192.356,-0.784783],[192.967,-0.656929],[193.415,-0.543516],[193.897,-0.402259],[194.327,-0.258876],[194.752,-0.10041],[195.172,0.0729917],[195.593,0.264501],[196.049,0.492884],[196.447,0.710986],[196.837,0.942844],[197.259,1.21517],[197.631,1.47507],[198.038,1.78245],[198.39,2.06949],[198.731,2.36801],[199.068,2.68466],[199.382,3.00084],[199.69,3.33337],[199.987,3.67719],[200.271,4.03041],[200.548,4.40078],[200.802,4.76626],[201.048,5.14805],[201.28,5.53736],[201.503,5.94267],[201.728,6.39105],[201.917,6.80421],[202.091,7.22326],[202.272,7.70939],[202.431,8.19448],[202.539,8.56745],[202.638,8.95195],[202.748,9.45045],[202.82,9.84142],[202.881,10.2421],[202.94,10.7491],[202.972,11.1449],[202.994,11.5894],[203.0,12.109],[202.993,12.4406],[202.969,12.9024],[202.941,13.2416],[202.882,13.7487],[202.815,14.1881],[202.729,14.6425],[202.631,15.0771],[202.544,15.4147],[202.417,15.8508],[202.275,16.2818],[202.08,16.8046],[201.905,17.2232],[201.715,17.6359],[201.481,18.0988],[201.261,18.4962],[201.032,18.8778],[200.812,19.2187],[200.492,19.6764],[200.218,20.0375],[199.931,20.3896],[199.632,20.731],[199.361,21.0211],[199.122,21.2627],[198.793,21.5754],[198.36,21.9557],[197.882,22.3407],[197.82,22.4038],[197.759,22.4868],[197.706,22.5917],[197.675,22.6898],[197.659,22.7989],[197.663,22.9311],[197.682,23.0248],[197.73,23.1481],[197.788,23.2421],[197.86,23.3254],[197.945,23.3959],[198.04,23.4516],[198.143,23.491],[198.244,23.5123],[198.354,23.5177],[198.464,23.5052],[198.57,23.4749],[198.657,23.435],[198.746,23.3769],[198.94,23.2253],[199.421,22.8246],[199.842,22.4435],[200.197,22.0967],[200.631,21.6391],[201.038,21.1703],[201.428,20.6794],[201.762,20.2213],[202.107,19.7041],[202.4,19.2229],[202.674,18.7305],[202.958,18.1664],[203.188,17.6579],[203.446,17.0136],[203.631,16.4867],[203.934,15.5313],[204.075,15.1149],[204.231,14.6965],[204.431,14.2157],[204.661,13.7211],[204.877,13.294],[205.185,12.7202],[205.935,11.3641],[206.165,10.9281],[206.387,10.4844],[206.603,10.0202],[206.803,9.54954],[206.983,9.07382],[207.11387254922002,8.680201562257661],[207.27575479256498,8.096139819567396],[207.3559527915448,7.735966807969034],[207.4050334608359,7.467762471500114],[207.47243272794648,6.962971868979335],[207.50548802570913,6.4817418257181805],[207.5060449219181,5.9857534002927535],[207.47070678160333,5.483138375036683],[207.39150015085667,4.946145031685],[207.34179083324722,4.707805424656431],[207.26020333273925,4.384617637996765],[207.18481299471355,4.132283375424067],[207.0903649558742,3.8562566894878842],[206.9604015594148,3.523542974868108],[206.7274725342377,3.0149983387445576],[206.56370107711348,2.6997395331444562],[206.26578570938926,2.178512889331186],[206.11319634580298,1.8488373644165712],[204.0707094367222,-3.5852366107815583],[203.71076086895127,-3.90632396469695],[203.31627071274022,-4.2380121930141454],[202.91375933297752,-4.559919249965969],[202.50346918747042,-4.8718512307759365],[202.0981882266452,-5.164788006501021],[201.52085451789412,-5.555923590081542],[201.39476562327337,-5.649740214454768],[201.28144554731117,-5.758637086491501],[201.18268565147326,-5.880892766644021],[201.10004713019296,-6.0145746395964625],[201.034836331541,-6.1575694650085815],[200.98808410650182,-6.307616783576269],[200.96052951330196,-6.46234465032644],[200.95260813439268,-6.619307130275133],[200.9662094249969,-7.7088835650050305],[200.9557484327681,-7.830660803582912],[200.65001276820067,-9.47468817183225],[200.63301424433806,-9.533351040597521],[200.01241937616106,-11.08614281470385],[199.9561525479083,-11.19464706453951],[199.02664212870226,-12.621313702961784],[197.8388111100673,-13.841323861840783],[197.74530456033173,-13.920036334490495],[196.3919439165857,-14.848965281819224],[196.28487802734796,-14.907923093479614],[194.71940484271002,-15.577744730021081],[192.96338563939528,-15.94834228931572],[188.78130941656732,-16.41301742518549],[188.62751044101068,-16.439917298761262],[188.4782646537727,-16.485780389284976],[188.33590054971324,-16.549891152468803],[123.1265969146602,-50.96591251541347],[122.36818044072012,-51.28149056808678],[122.25535709448883,-51.31591911049104],[121.44996150395282,-51.47754521611071],[65.5094883160751,-57.47116734338333],[64.66999775447313,-57.48241899292357],[64.54990297485294,-57.471956415052425],[63.81362301565077,-57.33514603689209],[63.69778596273591,-57.30176941633639],[63.001592366248325,-57.025835123243105],[62.89434276718318,-56.97079200261875],[62.189545053780456,-56.514578033281474],[30.179452382122673,-31.268522801170427],[30.041860329581596,-31.174183610419497],[29.892931039248765,-31.099007002921116],[29.7353172592626,-31.044332034311346],[29.571826427035273,-31.0111325823336],[29.40537066280768,-31.0],[26.622032077246775,-31.0],[26.46625103545029,-31.009745079825603],[26.312898951554004,-31.038828372773118],[26.1643669108363,-31.08679640842436],[26.0229708438467,-31.15290126304093],[25.890915416120954,-31.236112221286678],[25.770259652754408,-31.335131847272848],[25.66288483381974,-31.448416214344178],[25.570465161207792,-31.57419897818051],[25.49444165425787,-31.710518917863006],[25.435999681200123,-31.855250515481227],[25.4,-31.990106054694486],[25.4,-32.0],[25.359079236983806,-32.0],[0.0,-32.0],[0.0,-22.0],[0.0023960988594215163,-22.0],[0.0,175.9590792369838],[0.002517108501645497,175.99748289149838],[0.040920763015988404,176.0],[11.997482891498354,175.99748289149838],[12.0,44.76906557159605],[12.009864669942262,44.612335347508335]],[[142.94190998825505,-29.133393041811825],[143.04601150252046,-29.256197749102807],[143.16503315925485,-29.364604237069983],[143.2970006750988,-29.45681430250296],[143.4397250259901,-29.531298401932506],[143.59083875781428,-29.586821023082287],[143.747835256781,-29.622461179049463],[143.90811032812522,-29.637627685264906],[144.0690053934422,-29.632068965825013],[144.22785159011673,-29.605877226531575],[144.38201404134225,-29.559486925419037],[144.52893556239752,-29.4936675661394],[172.62190889061628,-14.666820531801719],[172.75789216800504,-14.58355201593763],[172.88216881030652,-14.483649995728534],[172.9927165802453,-14.368740083078833],[173.08773663761326,-14.240692099254867],[173.1656828101099,-14.101589649036628],[173.22528675275433,-13.953696216170819],[173.26557858647394,-13.799418331822137],[173.28590268003717,-13.64126641534805],[173.2859283185258,-13.481813924598416],[173.26565508474877,-13.323655480448839],[173.22541286603067,-13.169364646967916],[173.16585648626463,-13.021452054222205],[173.08795505057716,-12.882324545147165],[172.992976175989,-12.754246011248778],[172.88246536467193,-12.639300554419755],[172.75822085544095,-12.539358574303535],[171.87054486645042,-11.908090316834002],[171.72440097298897,-11.834548918635587],[171.5699041174274,-11.78072423594598],[171.40970090504464,-11.747538311410164],[171.24653569375047,-11.735559635841387],[171.0832035819175,-11.744993409700724],[149.0358974487537,-14.47465988333053],[148.8740687994315,-14.505637986370767],[148.71772047835452,-14.557631804328437],[148.56956900929455,-14.629737954030007],[148.43218849720373,-14.72070360417923],[148.30796590360683,-14.82894824307409],[148.1990595735772,-14.952591139711478],[148.10736173488152,-15.089484021147864],[148.0344656208653,-15.237248398352742],[142.7904662474225,-27.910246884172814],[142.73861830343765,-28.06266050597126],[142.70678941664366,-28.220473824074105],[142.6955075518099,-28.38106909464907],[142.7049598479715,-28.541782427955454],[142.73498951424244,-28.699947975875443],[142.78509843059956,-28.852942151930257],[142.85445541049714,-28.99822715027716],[142.94190998825505,-29.133393041811825]],[[88.58622611179001,-30.884765487348524],[88.45546396081464,-30.98887809495892],[88.33976140298311,-31.109506007576147],[88.24118725002714,-31.244492345996587],[88.16150405039765,-31.391423496158673],[88.10213657413694,-31.54767226560528],[88.06414633737452,-31.71044485882011],[88.04821262196016,-31.87683083149882],[87.68420590110276,-44.61706606150797],[87.69027900214208,-44.78088348496562],[87.71773730862657,-44.942497445345104],[87.76610857229036,-45.09912838620962],[87.83456086836065,-45.24808245277795],[87.92191690361531,-45.38679782283162],[88.02667426434257,-45.51288876682838],[88.14703125596343,-45.62418667944365],[88.28091788990764,-45.71877737684897],[88.42603148480842,-45.795034018261426],[88.57987626971985,-45.85164508555481],[88.73980630823168,-45.887636939718476],[88.90307100524102,-45.90239056622128],[89.06686241372147,-45.895652221281324],[119.42435574691726,-42.64306364986749],[119.57984908849589,-42.61639081986035],[119.7307442661444,-42.570344489948994],[119.87463761682207,-42.50565814852645],[131.3750498990286,-36.435996110695235],[131.52215077134866,-36.3448119428528],[131.65524697252746,-36.234183644781204],[131.7717870403726,-36.10623196761715],[131.86953689476482,-35.96340975271782],[131.94662266510832,-35.80845491054439],[139.5081463731495,-17.53477261611151],[139.56048542944993,-17.380532730915565],[139.5923250034104,-17.22079682221093],[139.60312449841365,-17.058277008319344],[139.592700552381,-16.895732674832175],[139.56123015103373,-16.73592362365321],[139.50924762289432,-16.581563214973013],[139.43763556704852,-16.43527229776618],[139.3476098677035,-16.299534711014683],[139.24069904997677,-16.176655111191597],[139.11871832742864,-16.068719842042366],[138.9837387819793,-15.9775615110464],[138.83805219949733,-15.90472787400688],[138.68413215810796,-15.85145555607],[138.52459202989334,-15.818649055358257],[138.36214060906454,-15.806865385710143],[138.19953611998315,-15.816304619273549],[119.27246560346028,-18.159656207033525],[119.11759801175609,-18.188840416107226],[118.96763329190381,-18.237278746168677],[118.82495510927698,-18.304201277664582],[118.69183131089872,-18.388544287599338],[118.57037787837388,-18.488967157242886],[118.462525294698,-18.60387368105225],[118.36998785953709,-18.73143743810477],[118.26113358782783,-18.901930146243252],[117.31788930080062,-20.24123412916596],[116.29179342252066,-21.55727797172013],[115.20235831099689,-22.82138844344566],[114.0522085108356,-24.030520191493927],[112.82138844344603,-25.202358310996583],[111.55727797172003,-26.291793422520733],[110.24123412916589,-27.317889300800676],[108.90193014624342,-28.261133587827732],[107.49245384456428,-29.154565567305205],[106.04083668941563,-29.977761644692677],[104.55057575367074,-30.728738668536316],[103.02526120645547,-31.405687469407766],[101.46856766411571,-32.006977218352084],[99.88424533774518,-32.531159355697305],[99.45138188706255,-32.651729823412545],[99.41610219815567,-32.65930692652091],[99.38036590391214,-32.65430830524944],[89.54284789895877,-30.686804704258765],[89.37712170546014,-30.665056049596945],[89.20997546636221,-30.66561277804376],[89.04439782864767,-30.688464935054007],[88.88334939202868,-30.733203914185417],[88.72970977214457,-30.79902976315841],[88.58622611179001,-30.884765487348524]],[[12.366116523516816,-21.633883476483184],[12.4890482137391,-21.741691675364045],[12.625,-21.83253175473055],[12.771645709543638,-21.90484941563911],[12.926476193621848,-21.957407282861336],[13.086842259724936,-21.989306076717263],[13.25,-22.0],[25.4,-22.0],[31.365209419315146,-22.0],[32.39302996746826,-22.112922135298604],[33.30502193302241,-22.42724618331294],[33.36743193390239,-22.45702537701551],[34.21401111887495,-22.988226686223534],[58.993961931786714,-42.531937892835494],[11.999215426004085,20.910969889971053],[11.996351658954294,-6.975601447624111],[9.590340253034654,-14.575862118740003],[9.523647189703013,-14.862397501696954],[9.504113383892307,-14.984908894151568],[9.496819705063604,-15.10875320407238],[9.500848086904766,-15.340516839363394],[9.538425762439232,-15.569249278700262],[9.567798916306913,-15.689780721413278],[9.649760942005521,-15.906605159258625],[9.702334507570335,-16.01897344239235],[9.765787637476437,-16.12557696557868],[9.899167216227857,-16.315156760060212],[10.058616069125026,-16.48340263315476],[10.15056093785449,-16.566689798822335],[10.25030880610555,-16.64045275449783],[10.44663515972674,-16.763686570382006],[10.55897429851913,-16.81632238277242],[10.775753294035754,-16.898404522159613],[11.063430977859516,-16.959984069191385],[11.186270820281877,-16.977332958615968],[11.997329918646331,-17.053746695966968],[12.0,-20.75],[12.010693923282737,-20.913157740275064],[12.042592717138664,-21.07352380637815],[12.09515058436089,-21.228354290456362],[12.167468245269452,-21.375],[12.258308324635957,-21.5109517862609],[12.366116523516816,-21.633883476483184]],[[77.52684290337604,-47.132082883104054],[77.6874469489566,-47.104185709230684],[77.8430551273497,-47.05562639926701],[77.991021162212,-46.98723075398093],[78.12882873967281,-46.90016191132557],[78.25413430082716,-46.79590056608794],[78.3648068963535,-46.67621978915851],[78.45896442548806,-46.54315487464593],[78.5350056430748,-46.398968727617536],[78.5916373903781,-46.246113381082516],[78.62789658657074,-46.08718829666086],[78.64316660690908,-45.92489615807789],[79.01001846856337,-33.085081000177496],[79.00321349575415,-32.91434923258142],[78.97318868744784,-32.74614056750265],[78.92050506356004,-32.58359801954839],[78.84614702878453,-32.429758730724835],[78.75150397878268,-32.287497220794144],[78.63834433903058,-32.159471676262626],[78.50878252141376,-32.04807428160171],[78.36523941599229,-31.955386520773352],[78.21039715615623,-31.883140284260477],[76.97473879354442,-31.405687469407717],[75.47715132941289,-30.741852602173083],[74.9764690817009,-30.48794375226477],[75.04628674925429,-28.753760074861],[75.04223373582127,-28.58851723519293],[75.01641324302396,-28.42525387392912],[74.96927676383473,-28.266824787871357],[74.9016485191259,-28.116000242464928],[74.81471104547647,-27.975417531383837],[74.70998451752826,-27.847534861239026],[74.58930016645729,-27.734588367774045],[74.45476825936085,-27.638553015156127],[74.30874119946733,-27.561108062071305],[74.15377239239288,-27.50360769847788],[73.70943196367361,-27.37143013878728],[73.60335031259933,-27.328952603501225],[72.23731356433764,-26.630563444847752],[72.14076236756821,-26.56944451078464],[70.90232926012716,-25.616037548855296],[59.53817067720349,-15.075967047078038],[59.25814739782693,-14.522848670587146],[58.594312530592184,-13.025261206455363],[57.98268972457947,-11.439688704241949],[57.459937057252056,-9.854894144764405],[57.023028919238286,-8.27611099859807],[56.65666160594905,-6.64803878315389],[56.544768322839936,-6.007584793724793],[56.50226721984891,-5.835864241883093],[56.4359504909411,-5.671863073755427],[56.34714635055345,-5.518865961592218],[56.23763339879584,-5.379937184596205],[56.10960499903153,-5.25785925647625],[14.046433729177773,29.514362326602864],[13.911604934162272,29.611490372752066],[13.765084188445485,29.689876164759873],[13.609460821772673,29.74813446081729],[13.447485026346394,29.785235714301745],[13.282019255145965,29.800524268031293],[13.115987636362895,29.79372994110601],[12.952324297905594,29.764972803572785],[12.916018500735099,29.75346430893105],[70.43140562291416,-47.89230830601068],[77.52684290337604,-47.132082883104054]]]}},{"type":"Feature","properties":{"name":"protected_G_interfaces"},"geometry":{"type":"MultiPolygon","coordinates":[[[[106.58693621065498,-3.7247210826667865],[106.49053130430724,-4.130663058355486],[106.38419311852248,-4.534116877073272],[106.26798570744755,-4.934839513325859],[106.14197907008162,-5.332589586781156],[106.00624910811135,-5.727127507667741],[105.86087758019056,-6.118215621094798],[105.70595205269187,-6.505618350206526],[105.54156584696003,-6.889102338084828],[105.36781798309853,-7.268436588314795],[105.18481312032375,-7.643392604128311],[104.99266149392204,-8.01374452604196],[104.7914788488481,-8.379269267906329],[104.58138637000462,-8.739746651284769],[104.36251060924502,-9.094959538080651],[104.13498340914327,-9.444693961333236],[103.89894182357692,-9.78873925410337],[103.65452803517097,-10.126888176371367],[103.40188926965232,-10.458937039870657],[103.14117770716653,-10.784685830781973],[102.87255039061024,-11.103938330214206],[102.5961691310343,-11.416502232399312],[102.31220041017494,-11.722189260530136],[102.0208152801713,-12.020815280171307],[101.72218926053014,-12.312200410174936],[101.41650223239931,-12.596169131034305],[101.1039383302142,-12.872550390610236],[100.78468583078197,-13.141177707166529],[100.45893703987066,-13.401889269652306],[100.12688817637137,-13.654528035170962],[99.78873925410338,-13.898941823576923],[99.44469396133324,-14.134983409143269],[99.09495953808066,-14.36251060924502],[98.73974665128478,-14.581386370004626],[98.37926926790632,-14.791478848848094],[98.01374452604196,-14.992661493922034],[97.64339260412831,-15.18481312032376],[97.2684365883148,-15.367817983098536],[96.88910233808483,-15.541565846960022],[96.50561835020653,-15.705952052691874],[96.1182156210948,-15.86087758019056],[95.72712750766775,-16.006249108111355],[95.33258958678115,-16.141979070081625],[94.93483951332585,-16.26798570744755],[94.53411687707327,-16.38419311852248],[94.13066305835548,-16.490531304307247],[93.72472108266679,-16.586936210654986],[93.31653547427418,-16.67334976685492],[92.90635210892512,-16.749719920612],[92.49441806574114,-16.816000669401276],[92.08098147838668,-16.87215208817807],[91.66629138560253,-16.918140353427347],[91.25059758119434,-16.953937763537734],[90.8341504635661,-16.97952275548793],[90.41720088488951,-16.994879917835473],[90.0,-17.0],[89.58279911511049,-16.994879917835473],[89.1658495364339,-16.97952275548793],[88.74940241880566,-16.953937763537734],[88.33370861439747,-16.918140353427347],[87.91901852161332,-16.87215208817807],[87.50558193425886,-16.816000669401276],[87.09364789107488,-16.749719920612],[86.68346452572582,-16.67334976685492],[86.27527891733321,-16.586936210654986],[85.86933694164452,-16.490531304307247],[85.46588312292673,-16.38419311852248],[85.06516048667415,-16.26798570744755],[84.66741041321885,-16.141979070081625],[84.27287249233225,-16.006249108111355],[83.8817843789052,-15.86087758019056],[83.49438164979347,-15.705952052691874],[83.11089766191517,-15.541565846960022],[82.73156341168522,-15.367817983098538],[82.35660739587169,-15.184813120323758],[81.98625547395804,-14.992661493922036],[81.62073073209368,-14.791478848848095],[81.26025334871522,-14.581386370004626],[80.90504046191936,-14.362510609245023],[80.55530603866677,-14.134983409143272],[80.21126074589662,-13.898941823576923],[79.87311182362863,-13.654528035170964],[79.54106296012935,-13.401889269652308],[79.21531416921803,-13.14117770716653],[78.8960616697858,-12.87255039061024],[78.58349776760069,-12.596169131034303],[78.27781073946986,-12.312200410174936],[77.9791847198287,-12.020815280171309],[77.68779958982506,-11.72218926053014],[77.4038308689657,-11.416502232399315],[77.12744960938976,-11.103938330214202],[76.85882229283347,-10.784685830781973],[76.5981107303477,-10.458937039870658],[76.34547196482904,-10.126888176371368],[76.10105817642308,-9.788739254103373],[75.86501659085673,-9.444693961333236],[75.63748939075498,-9.094959538080651],[75.41861362999538,-8.73974665128477],[75.2085211511519,-8.37926926790633],[75.00733850607797,-8.013744526041963],[74.81518687967625,-7.643392604128317],[74.63218201690147,-7.2684365883147946],[74.45843415303997,-6.889102338084829],[74.29404794730813,-6.505618350206528],[74.13912241980944,-6.1182156210948015],[73.99375089188865,-5.7271275076677455],[73.85802092991838,-5.332589586781154],[73.73201429255245,-4.93483951332586],[73.61580688147752,-4.5341168770732745],[73.50946869569276,-4.1306630583554895],[73.41306378934502,-3.724721082666791],[73.32665023314507,-3.316535474274186],[73.2677159494027,-3.0],[70.42954835164218,-3.0],[70.41430510269734,-2.905263394216164],[70.34890521494555,-2.423731368944484],[70.2953424118905,-1.9407393785253044],[70.25364895776192,-1.4565783592734212],[70.22384996713758,-0.9715399516828758],[70.20596338981515,-0.4859163247536641],[70.2,0.0],[70.20596338981515,0.4859163247536592],[70.22384996713758,0.971539951682871],[70.25364895776192,1.4565783592734165],[70.2953424118905,1.9407393785252998],[70.34890521494555,2.423731368944479],[70.41430510269734,2.9052633942161594],[70.49150268069896,3.3850453974539594],[70.58045144801603,3.8627883759193415],[70.68109782523713,4.338204555106022],[70.79338118674804,4.811007562084623],[70.91723389725028,5.280912598002986],[71.05258135250226,5.7476366096383495],[71.19934202425787,6.210898459898046],[71.35742750937618,6.670419097165959],[71.52674258307216,7.125921723392765],[71.70718525627652,7.577131960828776],[71.89864683707009,8.023778017298795],[72.10101199615582,8.46559084991958],[72.3141588363288,8.902304327161213],[72.53795896590256,9.333655389154753],[72.77227757604751,9.759384206149722],[73.01697352199461,10.179234335025788],[73.27189940805579,10.592952873764519],[73.5369016764096,11.000290613788119],[73.81182069959864,11.401002190073338],[74.09649087668323,11.79484622895018],[74.3907407329932,12.18158549349641],[74.6943930234178,12.560987026440177],[75.0072648391716,12.932822290484776],[75.32916771797181,13.296867305970965],[75.65990775756096,13.652902785793923],[75.99928573250635,14.00071426749364],[76.34709721420607,14.340092242439043],[76.70313269402902,14.670832282028186],[77.06717770951522,14.992735160828389],[77.43901297355981,15.305606976582187],[77.81841450650359,15.609259267006797],[78.20515377104982,15.903509123316773],[78.59899780992666,16.18817930040136],[78.99970938621188,16.463098323590398],[79.40704712623547,16.728100591944198],[79.8207656649742,16.983026478005385],[80.24061579385027,17.227722423952486],[80.66634461084524,17.462041034097428],[81.09769567283878,17.685841163671203],[81.5344091500804,17.898988003844174],[81.97622198270119,18.101353162929904],[82.4228680391712,18.292814743723472],[82.87407827660724,18.473257416927833],[83.32958090283404,18.642572490623813],[83.78910154010195,18.800657975742126],[84.25236339036164,18.947418647497734],[84.71908740199702,19.08276610274971],[85.18899243791537,19.20661881325197],[85.66179544489397,19.318902174762865],[86.13721162408065,19.41954855198396],[86.61495460254602,19.508497319301036],[87.09473660578382,19.585694897302663],[87.57626863105553,19.65109478505446],[88.0592606214747,19.7046575881095],[88.54342164072659,19.746351042238068],[89.02846004831713,19.776150032862414],[89.51408367524634,19.794036610184843],[90.0,19.8],[90.48591632475366,19.794036610184843],[90.97153995168287,19.776150032862414],[91.45657835927341,19.746351042238068],[91.9407393785253,19.7046575881095],[92.42373136894447,19.65109478505446],[92.90526339421616,19.585694897302663],[93.38504539745396,19.508497319301036],[93.86278837591934,19.41954855198396],[94.33820455510602,19.318902174762865],[94.81100756208463,19.20661881325197],[95.28091259800298,19.082766102749712],[95.74763660963835,18.947418647497738],[96.21089845989805,18.80065797574213],[96.67041909716595,18.642572490623817],[97.12592172339275,18.473257416927833],[97.57713196082878,18.292814743723476],[98.02377801729881,18.101353162929907],[98.46559084991958,17.898988003844178],[98.9023043271612,17.685841163671203],[99.33365538915476,17.46204103409743],[99.75938420614972,17.22772242395249],[100.17923433502578,16.983026478005392],[100.59295287376452,16.728100591944205],[101.00029061378811,16.4630983235904],[101.40100219007333,16.188179300401366],[101.79484622895018,15.903509123316777],[102.18158549349641,15.609259267006802],[102.56098702644019,15.30560697658219],[102.93282229048478,14.992735160828396],[103.29686730597096,14.67083228202819],[103.65290278579393,14.340092242439047],[104.00071426749363,14.000714267493645],[104.34009224243904,13.65290278579393],[104.67083228202819,13.29686730597097],[104.99273516082839,12.932822290484786],[105.30560697658218,12.56098702644019],[105.60925926700679,12.181585493496423],[105.90350912331678,11.79484622895018],[106.18817930040136,11.401002190073337],[106.4630983235904,11.000290613788124],[106.7281005919442,10.592952873764526],[106.98302647800539,10.179234335025793],[107.22772242395249,9.75938420614973],[107.46204103409742,9.333655389154758],[107.6858411636712,8.902304327161218],[107.89898800384418,8.465590849919595],[108.10135316292991,8.023778017298811],[108.29281474372347,7.57713196082879],[108.47325741692784,7.1259217233927625],[108.64257249062382,6.670419097165956],[108.80065797574213,6.210898459898052],[108.94741864749773,5.7476366096383575],[109.0827661027497,5.280912598002992],[109.20661881325196,4.81100756208463],[109.31890217476287,4.338204555106029],[109.41954855198397,3.8627883759193486],[109.50849731930103,3.3850453974539754],[109.58569489730266,2.9052633942161754],[109.65109478505445,2.4237313689444773],[109.7046575881095,1.9407393785252982],[109.74635104223808,1.4565783592734147],[109.77615003286242,0.9715399516828782],[109.79403661018485,0.4859163247536665],[109.8,0.0],[109.79403661018485,-0.4859163247536633],[109.77615003286242,-0.9715399516828768],[109.74635104223808,-1.4565783592734152],[109.7046575881095,-1.9407393785253],[109.65109478505445,-2.423731368944481],[109.58569489730266,-2.9052633942161625],[109.57045164835782,-3.0],[106.7322840505973,-3.0],[106.67334976685493,-3.3165354742741804],[106.58693621065498,-3.7247210826667865]]],[[[206.58693621065498,8.275278917333214],[206.49053130430724,7.869336941644514],[206.3841931185225,7.465883122926728],[206.26798570744756,7.065160486674141],[206.14197907008162,6.667410413218844],[206.00624910811135,6.272872492332259],[205.86087758019056,5.881784378905202],[205.70595205269188,5.494381649793474],[205.54156584696003,5.110897661915172],[205.36781798309855,4.731563411685205],[205.18481312032375,4.356607395871689],[204.99266149392204,3.9862554739580407],[204.7914788488481,3.620730732093671],[204.58138637000462,3.2602533487152314],[204.36251060924502,2.9050404619193486],[204.13498340914327,2.555306038666764],[203.89894182357693,2.211260745896629],[203.65452803517096,1.8731118236286335],[203.40188926965232,1.5410629601293433],[203.14117770716652,1.2153141692180274],[202.87255039061023,0.8960616697857944],[202.59616913103432,0.5834977676006883],[202.31220041017494,0.2778107394698637],[202.02081528017132,-0.020815280171307293],[201.72218926053014,-0.3122004101749365],[201.41650223239932,-0.5961691310343049],[201.1039383302142,-0.8725503906102361],[200.78468583078197,-1.1411777071665288],[200.45893703987065,-1.4018892696523064],[200.12688817637138,-1.6545280351709621],[199.78873925410338,-1.8989418235769229],[199.44469396133323,-2.1349834091432687],[199.09495953808064,-2.362510609245019],[198.73974665128478,-2.5813863700046262],[198.37926926790632,-2.7914788488480937],[198.01374452604196,-2.992661493922034],[197.6433926041283,-3.18481312032376],[197.26843658831478,-3.3678179830985364],[196.88910233808483,-3.5415658469600224],[196.50561835020653,-3.705952052691874],[196.1182156210948,-3.860877580190561],[195.72712750766775,-4.006249108111355],[195.33258958678115,-4.141979070081625],[194.93483951332587,-4.267985707447551],[194.53411687707327,-4.384193118522479],[194.13066305835548,-4.490531304307247],[193.72472108266678,-4.5869362106549865],[193.3165354742742,-4.673349766854919],[192.90635210892512,-4.7497199206120015],[192.49441806574114,-4.8160006694012765],[192.0809814783867,-4.872152088178069],[191.66629138560253,-4.918140353427347],[191.25059758119434,-4.953937763537734],[190.83415046356612,-4.979522755487931],[190.4172008848895,-4.994879917835473],[190.0,-5.0],[189.5827991151105,-4.994879917835473],[189.16584953643388,-4.979522755487931],[188.74940241880566,-4.953937763537734],[188.33370861439747,-4.918140353427347],[187.91901852161334,-4.872152088178069],[187.50558193425886,-4.8160006694012765],[187.09364789107488,-4.7497199206120015],[186.6834645257258,-4.673349766854919],[186.27527891733322,-4.5869362106549865],[185.86933694164452,-4.490531304307247],[185.46588312292673,-4.384193118522479],[185.06516048667413,-4.267985707447551],[184.66741041321885,-4.141979070081625],[184.27287249233225,-4.006249108111355],[183.8817843789052,-3.860877580190561],[183.49438164979347,-3.705952052691874],[183.11089766191517,-3.5415658469600224],[182.73156341168522,-3.367817983098538],[182.3566073958717,-3.184813120323758],[181.98625547395804,-2.9926614939220357],[181.62073073209368,-2.7914788488480955],[181.26025334871522,-2.5813863700046262],[180.90504046191936,-2.3625106092450228],[180.55530603866677,-2.1349834091432722],[180.21126074589662,-1.8989418235769229],[179.87311182362862,-1.654528035170964],[179.54106296012935,-1.4018892696523082],[179.21531416921803,-1.1411777071665306],[178.8960616697858,-0.8725503906102396],[178.58349776760068,-0.5961691310343031],[178.27781073946986,-0.3122004101749365],[177.97918471982868,-0.02081528017130907],[177.68779958982506,0.2778107394698601],[177.4038308689657,0.5834977676006847],[177.12744960938977,0.8960616697857979],[176.85882229283348,1.2153141692180274],[176.59811073034768,1.5410629601293415],[176.34547196482904,1.8731118236286317],[176.10105817642307,2.2112607458966274],[175.86501659085673,2.555306038666764],[175.63748939075498,2.9050404619193486],[175.41861362999538,3.2602533487152296],[175.2085211511519,3.6207307320936692],[175.00733850607796,3.986255473958037],[174.81518687967625,4.356607395871683],[174.63218201690145,4.7315634116852054],[174.45843415303997,5.110897661915171],[174.29404794730812,5.494381649793472],[174.13912241980944,5.8817843789051985],[173.99375089188865,6.2728724923322545],[173.85802092991838,6.667410413218846],[173.73201429255244,7.06516048667414],[173.6158068814775,7.4658831229267255],[173.50946869569276,7.8693369416445105],[173.41306378934502,8.275278917333209],[173.32665023314507,8.683464525725814],[173.26771594940269,9.0],[170.42954835164218,9.0],[170.41430510269734,9.094736605783837],[170.34890521494555,9.576268631055516],[170.2953424118905,10.059260621474696],[170.25364895776192,10.543421640726578],[170.2238499671376,11.028460048317124],[170.20596338981517,11.514083675246336],[170.2,12.0],[170.20596338981517,12.48591632475366],[170.2238499671376,12.971539951682871],[170.25364895776192,13.456578359273417],[170.2953424118905,13.9407393785253],[170.34890521494555,14.423731368944479],[170.41430510269734,14.90526339421616],[170.49150268069897,15.38504539745396],[170.58045144801605,15.862788375919342],[170.68109782523715,16.33820455510602],[170.79338118674804,16.811007562084622],[170.9172338972503,17.280912598002985],[171.05258135250227,17.74763660963835],[171.19934202425787,18.210898459898047],[171.35742750937618,18.670419097165958],[171.52674258307218,19.125921723392764],[171.70718525627652,19.577131960828776],[171.8986468370701,20.023778017298795],[172.10101199615582,20.46559084991958],[172.3141588363288,20.90230432716121],[172.53795896590256,21.333655389154753],[172.77227757604751,21.759384206149722],[173.0169735219946,22.17923433502579],[173.2718994080558,22.592952873764517],[173.5369016764096,23.000290613788117],[173.81182069959863,23.40100219007334],[174.09649087668322,23.794846228950178],[174.3907407329932,24.18158549349641],[174.6943930234178,24.560987026440177],[175.0072648391716,24.932822290484776],[175.3291677179718,25.296867305970963],[175.65990775756094,25.652902785793923],[175.99928573250637,26.000714267493642],[176.34709721420606,26.34009224243904],[176.70313269402902,26.670832282028186],[177.06717770951522,26.99273516082839],[177.4390129735598,27.305606976582187],[177.8184145065036,27.6092592670068],[178.20515377104982,27.903509123316773],[178.59899780992666,28.18817930040136],[178.99970938621186,28.463098323590398],[179.40704712623548,28.728100591944198],[179.8207656649742,28.983026478005385],[180.24061579385028,29.227722423952486],[180.66634461084524,29.462041034097428],[181.09769567283877,29.685841163671203],[181.53440915008042,29.898988003844174],[181.9762219827012,30.101353162929904],[182.42286803917122,30.292814743723472],[182.87407827660724,30.473257416927833],[183.32958090283404,30.642572490623813],[183.78910154010194,30.800657975742126],[184.25236339036164,30.947418647497734],[184.719087401997,31.08276610274971],[185.18899243791537,31.20661881325197],[185.66179544489398,31.318902174762865],[186.13721162408066,31.41954855198396],[186.61495460254602,31.508497319301036],[187.09473660578382,31.585694897302663],[187.5762686310555,31.65109478505446],[188.0592606214747,31.7046575881095],[188.5434216407266,31.746351042238068],[189.02846004831713,31.776150032862414],[189.51408367524633,31.794036610184843],[190.0,31.8],[190.48591632475365,31.794036610184843],[190.97153995168287,31.776150032862414],[191.4565783592734,31.746351042238068],[191.94073937852528,31.7046575881095],[192.42373136894446,31.65109478505446],[192.90526339421618,31.585694897302663],[193.38504539745398,31.508497319301036],[193.86278837591934,31.41954855198396],[194.33820455510602,31.318902174762865],[194.81100756208463,31.20661881325197],[195.280912598003,31.082766102749712],[195.74763660963833,30.947418647497738],[196.21089845989803,30.80065797574213],[196.67041909716596,30.642572490623817],[197.12592172339276,30.473257416927833],[197.57713196082878,30.292814743723476],[198.0237780172988,30.101353162929907],[198.46559084991958,29.898988003844178],[198.9023043271612,29.685841163671203],[199.33365538915476,29.46204103409743],[199.75938420614972,29.22772242395249],[200.1792343350258,28.983026478005392],[200.59295287376452,28.728100591944205],[201.0002906137881,28.4630983235904],[201.40100219007334,28.188179300401366],[201.79484622895018,27.903509123316777],[202.1815854934964,27.609259267006802],[202.5609870264402,27.30560697658219],[202.93282229048478,26.992735160828396],[203.29686730597098,26.67083228202819],[203.6529027857939,26.34009224243905],[204.00071426749363,26.000714267493645],[204.34009224243903,25.65290278579393],[204.6708322820282,25.29686730597097],[204.99273516082837,24.932822290484786],[205.3056069765822,24.560987026440188],[205.6092592670068,24.18158549349642],[205.90350912331678,23.794846228950178],[206.18817930040137,23.401002190073335],[206.4630983235904,23.000290613788124],[206.7281005919442,22.592952873764524],[206.9830264780054,22.179234335025793],[207.22772242395249,21.75938420614973],[207.4620410340974,21.333655389154757],[207.6858411636712,20.902304327161218],[207.89898800384418,20.465590849919593],[208.1013531629299,20.02377801729881],[208.29281474372348,19.57713196082879],[208.47325741692782,19.125921723392764],[208.64257249062382,18.670419097165954],[208.80065797574213,18.210898459898054],[208.94741864749773,17.747636609638356],[209.0827661027497,17.280912598002992],[209.20661881325196,16.81100756208463],[209.31890217476285,16.338204555106028],[209.41954855198395,15.862788375919349],[209.50849731930103,15.385045397453975],[209.58569489730266,14.905263394216176],[209.65109478505445,14.423731368944477],[209.7046575881095,13.940739378525299],[209.74635104223808,13.456578359273415],[209.7761500328624,12.971539951682878],[209.79403661018483,12.485916324753667],[209.8,12.0],[209.79403661018483,11.514083675246336],[209.7761500328624,11.028460048317124],[209.74635104223808,10.543421640726585],[209.7046575881095,10.0592606214747],[209.65109478505445,9.57626863105552],[209.58569489730266,9.094736605783837],[209.57045164835782,9.0],[206.73228405059731,9.0],[206.67334976685493,8.68346452572582],[206.58693621065498,8.275278917333214]]]]}}]}
